AMC-3                   
1 24936U 97050A   26062.99627912 -.00000271  00000+0  00000+0 0  9995
2 24936   7.8887  65.2783 0003483 287.8217  95.3034  1.00271818 51387
NSS-11                  
1 26554U 00059A   26064.68030781  .00000018  00000+0  00000+0 0  9994
2 26554   1.8592  82.6563 0003171 269.4661 232.1912  1.00272508 40251
AMC-6                   
1 26580U 00067A   26064.62775490  .00000081  00000+0  00000+0 0  9999
2 26580   0.0314 322.9282 0003092  27.1013 264.2486  1.00272696 92856
AMC-11                  
1 28252U 04017A   26064.63252159 -.00000057  00000+0  00000+0 0  9993
2 28252   0.0445  79.2927 0003227 272.5152 288.1558  1.00272623 79824
AMC-15                  
1 28446U 04041A   26064.63373493 -.00000096  00000+0  00000+0 0  9993
2 28446   0.0525 299.4291 0002607  28.1078 318.9071  1.00272311 78264
NSS-10                  
1 28526U 05003A   26063.45322368 -.00000260  00000+0  00000+0 0  9998
2 28526   6.1878  71.7201 0003261 277.1631 299.0193  1.00271252 52103
ASTRA 1KR               
1 29055U 06012A   26064.80835257  .00000112  00000+0  00000+0 0  9998
2 29055   0.2074  81.8693 0003417 251.7714 139.8843  1.00270094 44662
ASTRA 1L                
1 31306U 07016A   26064.43578737 -.00000192  00000+0  00000+0 0  9990
2 31306   1.0535  82.4151 0003358 277.9455 295.2321  1.00271186 43948
ASTRA 4A                
1 32299U 07057A   26064.65548836  .00000025  00000+0  00000+0 0  9992
2 32299   0.0507 294.7710 0002399  50.2802  59.1109  1.00271236 50607
ASTRA 1M                
1 33436U 08057A   26064.58702139  .00000113  00000+0  00000+0 0  9995
2 33436   0.0373  62.2117 0000982  11.9452 319.6882  1.00274593 44695
NSS-9                   
1 33749U 09008A   26064.75253139  .00000065  00000+0  00000+0 0  9995
2 33749   0.9942  83.6902 0002137 257.9891 275.7790  1.00273644 62488
SES-7 (PROTOSTAR 2)     
1 34941U 09027A   26064.72753286 -.00000352  00000+0  00000+0 0  9996
2 34941   0.0175  98.2179 0001451 210.0984 225.3007  1.00271071 61596
NSS-12                  
1 36032U 09058A   26064.66580175  .00000064  00000+0  00000+0 0  9990
2 36032   0.0358 307.3290 0004926  23.5382 129.2055  1.00273074 59888
SES-1                   
1 36516U 10016A   26064.63451493 -.00000122  00000+0  00000+0 0  9996
2 36516   0.0504 295.4082 0002503  42.2482 313.1295  1.00272530 57998
ASTRA 3B                
1 36581U 10021A   26064.74731797  .00000131  00000+0  00000+0 0  9993
2 36581   1.2008  84.9071 0003108 281.0445  90.0486  1.00272336 57835
SES-3                   
1 37748U 11035A   26064.63408161 -.00000108  00000+0  00000+0 0  9994
2 37748   1.0590  84.2907 0003576 267.8525 296.4797  1.00272278 53553
ASTRA 1N                
1 37775U 11041A   26064.58702139  .00000113  00000+0  00000+0 0  9992
2 37775   0.0703  22.8506 0004155 356.9516  14.0459  1.00274542 43481
SES-2                   
1 37809U 11049A   26064.73418977 -.00000202  00000+0  00000+0 0  9999
2 37809   0.0225  76.3318 0002909 269.0520 355.3726  1.00271914 52924
QUETZSAT 1              
1 37826U 11054A   26064.56795463 -.00000249  00000+0  00000+0 0  9994
2 37826   0.0510 291.2254 0002784  71.4511 288.0710  1.00271010 48830
SES-4                   
1 38087U 12007A   26064.43622072 -.00000178  00000+0  00000+0 0  9995
2 38087   0.0359  66.5072 0002347 256.9214 334.7775  1.00260475 51182
SES-5                   
1 38652U 12036A   26064.65548836  .00000026  00000+0  00000+0 0  9995
2 38652   0.0592 310.9020 0002126  30.0969  63.3269  1.00270058 43419
ASTRA 2F                
1 38778U 12051A   26064.65667453  .00000143  00000+0  00000+0 0  9998
2 38778   0.0943 260.4654 0002395   9.9493 157.5800  1.00276075 40098
SES-6                   
1 39172U 13026A   26064.54684572 -.00000269  00000+0  00000+0 0  9999
2 39172   0.0636 289.8236 0001842  63.8419 325.9573  1.00271853 46688
O3B FM5                 
1 39188U 13031A   26064.49683626 -.00000027  00000+0  00000+0 0  9997
2 39188   0.0979  13.7652 0003333 321.5725  24.6406  5.00116468231859
O3B FM4                 
1 39189U 13031B   26064.41610232 -.00000027  00000+0  00000+0 0  9993
2 39189   0.0553 345.1362 0005086   8.5792   6.2723  5.00115202231854
O3B FM2                 
1 39190U 13031C   26064.48178311 -.00000027  00000+0  00000+0 0  9999
2 39190   0.0563 338.9570 0002843   1.3994  19.6268  5.00116009231927
O3B PFM                 
1 39191U 13031D   26064.49589663 -.00000027  00000+0  00000+0 0  9997
2 39191   0.0667   7.3630 0005139 351.6812   0.9489  5.00115985231489
ASTRA 2E                
1 39285U 13056A   26064.65667465  .00000143  00000+0  00000+0 0  9991
2 39285   0.0715  32.9201 0002187 306.2452  89.0929  1.00272675 45375
SES-8                   
1 39460U 13071A   26064.76799459 -.00000276  00000+0  00000+0 0  9992
2 39460   0.0548 271.7293 0001712  99.7480 163.4890  1.00272679 43406
ASTRA 5B                
1 39617U 14011B   26064.71620332  .00000130  00000+0  00000+0 0  9997
2 39617   0.0882 299.9851 0004072  27.9454 116.8177  1.00271717 43636
O3B FM3                 
1 40079U 14038A   26064.56251995 -.00000027  00000+0  00000+0 0  9994
2 40079   0.0530 353.4032 0000624  56.3760 310.2204  5.00115630207854
O3B FM7                 
1 40080U 14038B   26061.31035470 -.00000029  00000+0  00000+0 0  9996
2 40080   0.0588 348.9474 0004488 339.4059  31.6123  5.00115622212532
O3B FM6                 
1 40081U 14038C   26064.33572354 -.00000027  00000+0  00000+0 0  9997
2 40081   0.0549 351.2781 0002660 350.0303  18.6758  5.00115721212639
O3B FM8                 
1 40082U 14038D   26063.58947926 -.00000027  00000+0  00000+0 0  9995
2 40082   0.0558 350.6431 0002658 354.8269  14.5160  5.00115977212719
O3B FM10                
1 40348U 14083A   26064.41609957 -.00000027  00000+0  00000+0 0  9992
2 40348   0.0433 347.5129 0002685 355.2556  17.2165  5.00115233204709
O3B FM11                
1 40349U 14083B   26064.62871206 -.00000026  00000+0  00000+0 0  9993
2 40349   0.0567   0.4159 0003130 332.8931  26.6692  5.00115614204724
O3B FM12                
1 40350U 14083C   26062.45701119 -.00000028  00000+0  00000+0 0  9991
2 40350   0.0560 359.7796 0002643 337.6957  22.5061  5.00115945204637
O3B FM9                 
1 40351U 14083D   26064.48274576 -.00000027  00000+0  00000+0 0  9998
2 40351   0.0578   0.7509 0002734 342.3112  16.9229  5.00115908204888
ASTRA 2G                
1 40364U 14089A   26064.65667395  .00000000  00000+0  00000+0 0  9992
2 40364   0.0241  10.7878 0004475  19.7531  37.4393  1.00271677 40928
SES-9                   
1 41380U 16013A   26063.33003138 -.00000357  00000+0  00000+0 0  9999
2 41380   0.0427 307.7822 0001514  86.5529 354.8377  1.00271983 36384
SES-10                  
1 42432U 17017A   26063.34003264 -.00000284  00000+0  00000+0 0  9993
2 42432   0.0212  73.6872 0002699 276.1470 227.7463  1.00269378 32707
SES-15                  
1 42709U 17026A   26064.01780892  .00000050  00000+0  00000+0 0  9994
2 42709   0.0426 307.9199 0000713  39.5952  52.4724  1.00271060  6386
SES-11 (ECHOSTAR 105)   
1 42967U 17063A   26064.20584368 -.00000098  00000+0  00000+0 0  9995
2 42967   0.0386  71.4662 0002895 270.8534 149.7752  1.00272288 30688
SES-14                  
1 43175U 18012B   26064.50252102 -.00000286  00000+0  00000+0 0  9992
2 43175   0.0143  73.8517 0000968 278.4306 304.3499  1.00272925  5986
O3B FM15                
1 43231U 18024A   26064.54950874 -.00000027  00000+0  00000+0 0  9996
2 43231   0.0485   0.8251 0002690 339.6278  19.5310  5.00115718145842
O3B FM16                
1 43232U 18024B   26064.40199484 -.00000027  00000+0  00000+0 0  9994
2 43232   0.0450   2.7413 0002810 340.9630  16.2807  5.00115819145754
O3B FM14                
1 43233U 18024C   26064.24285615 -.00000027  00000+0  00000+0 0  9999
2 43233   0.0434   1.7052 0002845 342.9716  15.3086  5.00115662145755
O3B FM13                
1 43234U 18024D   26062.10991137 -.00000028  00000+0  00000+0 0  9997
2 43234   0.0485 331.6373 0004295 331.6147  56.6997  5.00115687145742
SES-12                  
1 43488U 18049A   26064.17058906  .00000000  00000+0  00000+0 0  9991
2 43488   0.0166 121.0370 0001794 184.3704  13.9195  1.00264640 28375
O3B FM20                
1 44112U 19020A   26064.46876809 -.00000027  00000+0  00000+0 0  9998
2 44112   0.0517 359.6814 0002804 332.8765  27.4214  5.00115500126388
O3B FM19                
1 44113U 19020B   26058.89895873 -.00000027  00000+0  00000+0 0  9991
2 44113   0.0602 347.5601 0004795 353.9797  18.4356  5.00116325125971
O3B FM17                
1 44114U 19020C   26064.37605391 -.00000027  00000+0  00000+0 0  9996
2 44114   0.0393 340.1862 0002685 359.0551  20.7418  5.00115476126330
O3B FM18                
1 44115U 19020D   26062.52332968 -.00000028  00000+0  00000+0 0  9990
2 44115   0.0519   0.0145 0002751 341.7220  18.2467  5.00115242126362
SES-17                  
1 49332U 21095A   26064.75103102 -.00000279  00000+0  00000+0 0  9992
2 49332   0.0236  65.1979 0000895 278.5951  22.9549  1.00272360 16818
SES-22                  
1 52933U 22071A   26064.62697490  .00000000  00000+0  00000+0 0  9993
2 52933   0.0181 163.9470 0001080 179.8766 266.2615  1.00268844  6486
SES-20                  
1 53960U 22123A   26064.33517131 -.00000109  00000+0  00000+0 0  9994
2 53960   0.0163 109.4128 0001608 314.8769 116.3178  1.00271408 12499
SES-21                  
1 53961U 22123B   26064.62862156  .00000062  00000+0  00000+0 0  9994
2 53961   0.0273  67.2258 0000995 276.6700 274.7654  1.00270324  6177
O3B MPOWER F1           
1 54755U 22174A   26064.67821962 -.00000027  00000+0  00000+0 0  9999
2 54755   0.0640 350.9077 0005187  10.1156 139.9725  5.00103107 60182
O3B MPOWER F2           
1 54756U 22174B   26062.53384886 -.00000028  00000+0  00000+0 0  9993
2 54756   0.1272 326.2177 0046125  76.0907 318.0389  5.00690325 60150
SES-18                  
1 55970U 23038A   26064.63408161 -.00000108  00000+0  00000+0 0  9997
2 55970   0.0570 272.7768 0002382  37.4602 338.2842  1.00272213 11062
SES-19                  
1 55971U 23038B   26064.62784156  .00000080  00000+0  00000+0 0  9996
2 55971   0.0509 289.5985 0001712  53.5744 271.2981  1.00273039 11049
O3B MPOWER F4           
1 56367U 23059A   26048.24074746 -.00000015  00000+0  00000+0 0  9995
2 56367   0.0593   7.9241 0006460 334.3658  17.6828  5.00119607 52601
O3B MPOWER F5           
1 58346U 23175A   26064.36529566 -.00000027  00000+0  00000+0 0  9992
2 58346   0.0399   3.1527 0004143 345.6503  11.1818  5.00115737 44248
ASTRA 1P (SES-24)       
1 60086U 24115A   26063.37128004  .00000108  00000+0  00000+0 0  9992
2 60086   0.0597 335.5167 0005274 347.3044 352.1506  1.00273834  6147
O3B MPOWER F7           
1 62362U 24244A   26064.33229036 -.00000027  00000+0  00000+0 0  9999
2 62362   0.0698   4.8437 0006126 338.4892  16.6410  5.00115270 21330
O3B MPOWER F8           
1 62363U 24244B   26064.49916480 -.00000027  00000+0  00000+0 0  9993
2 62363   0.0519 316.5692 0006619  20.3492  23.0460  5.00115780 15683
